[{"OBJECT_NAME":"FUNCUBE-1 (AO-73)","OBJECT_ID":"2013-066AE","EPOCH":"2026-03-09T21:45:20.354112","MEAN_MOTION":15.07917828,"ECCENTRICITY":0.00373117,"INCLINATION":97.8195,"RA_OF_ASC_NODE":38.4486,"ARG_OF_PERICENTER":178.1154,"MEAN_ANOMALY":182.0221,"EPHEMERIS_TYPE":0,"CLASSIFICATION_TYPE":"U","NORAD_CAT_ID":39444,"ELEMENT_SET_NO":999,"REV_AT_EPOCH":66469,"BSTAR":0.00061714882,"MEAN_MOTION_DOT":9.564e-5,"MEAN_MOTION_DDOT":0},{"OBJECT_NAME":"STARLINK-34717","OBJECT_ID":"2025-165E","EPOCH":"2026-03-09T18:13:22.141056","MEAN_MOTION":15.05644459,"ECCENTRICITY":1.753e-5,"INCLINATION":97.603,"RA_OF_ASC_NODE":147.34,"ARG_OF_PERICENTER":167.0938,"MEAN_ANOMALY":193.0294,"EPHEMERIS_TYPE":0,"CLASSIFICATION_TYPE":"U","NORAD_CAT_ID":65060,"ELEMENT_SET_NO":999,"REV_AT_EPOCH":3480,"BSTAR":3.4347006e-5,"MEAN_MOTION_DOT":4.35e-6,"MEAN_MOTION_DDOT":0}]
